STARLINK-4152           
1 53136U 22083E   22346.76313153 -.00000156  00000+0  82961-5 0  9992
2 53136  53.2179  84.4949 0002376  33.9733 326.1411 15.08843027 23620
STARLINK-4145           
1 53137U 22083F   22346.75576819  .00001660  00000+0  12237-3 0  9999
2 53137  53.2178  84.5361 0002296  32.3247 327.7885 15.08842211 22639
STARLINK-4141           
1 53138U 22083G   22346.73694755  .00000167  00000+0  28571-4 0  9998
2 53138  53.2192  79.5979 0002114  32.4116 327.7006 15.08840834 23477
STARLINK-4185           
1 53139U 22083H   22346.74473701  .00002228  00000+0  15803-3 0  9999
2 53139  53.2165  84.5742 0002634  34.5506 325.5657 15.08844621 22638
STARLINK-4170           
1 53140U 22083J   22347.01337295  .00000811  00000+0  69074-4 0  9995
2 53140  53.2163  83.3682 0002971  42.3936 317.7286 15.08844142 23300
STARLINK-4103           
1 53141U 22083K   22346.99497208  .00001883  00000+0  13636-3 0  9995
2 53141  53.2170  83.4345 0002618  41.6984 318.4207 15.08841519 23305
STARLINK-4101           
1 53142U 22083L   22346.47609245  .00001642  00000+0  12124-3 0  9999
2 53142  53.2173  85.7863 0002624  36.5916 323.5255 15.08841701 23228
STARLINK-4102           
1 53143U 22083M   22346.99129376  .00000279  00000+0  35629-4 0  9990
2 53143  53.2191  83.4638 0002149  38.0130 322.1013 15.08845110 23305
STARLINK-4100           
1 53144U 22083N   22346.67112828  .00001964  00000+0  14144-3 0  9990
2 53144  53.2175  84.9091 0002797  41.7180 318.4025 15.08844502 22621
STARLINK-4106           
1 53145U 22083P   22346.98393906  .00000037  00000+0  20432-4 0  9991
2 53145  53.2198  83.4870 0001961  40.9664 319.1475 15.08839699 23300
STARLINK-4099           
1 53146U 22083Q   22346.46873792  .00000876  00000+0  73134-4 0  9999
2 53146  53.2196  85.8104 0002283  38.0281 322.0872 15.08836910 22593
STARLINK-4094           
1 53147U 22083R   22346.98025837 -.00000093  00000+0  12302-4 0  9998
2 53147  53.2192  83.4999 0002278  43.5808 316.5363 15.08834415 23307
STARLINK-4066           
1 53148U 22083S   22346.52393692  .00001001  00000+0  81038-4 0  9997
2 53148  53.2204  85.5551 0002606  49.4320 310.6899 15.08836799 22606
STARLINK-4021           
1 53149U 22083T   22347.05477207 -.00000048  00000+0  15117-4 0  9998
2 53149  53.2187  73.1663 0002297  35.8925 324.2222 15.08854337 23453
STARLINK-4038           
1 53150U 22083U   22346.43285032  .00001877  00000+0  13598-3 0  9994
2 53150  53.2159  75.9585 0002375  39.7774 320.3392 15.08843320 22723
STARLINK-4040           
1 53151U 22083V   22346.95173236 -.00000039  00000+0  15695-4 0  9995
2 53151  53.2183  73.6271 0002668  30.4209 329.6938 15.08845573 23433
STARLINK-4045           
1 53152U 22083W   22346.62789694  .00001250  00000+0  96610-4 0  9992
2 53152  53.2182  75.0834 0002085  40.3147 319.8000 15.08844759 22758
STARLINK-4098           
1 53153U 22083X   22346.61684818  .00000701  00000+0  62127-4 0  9990
2 53153  53.2175  75.1342 0001900  42.8085 317.3054 15.08838555 23388
STARLINK-4077           
1 53154U 22083Y   22346.69044973  .00001454  00000+0  10947-3 0  9999
2 53154  53.2184  74.8042 0002136  34.6336 325.4794 15.08838034 23396
STARLINK-4088           
1 53155U 22083Z   22346.94068860 -.00000009  00000+0  17539-4 0  9990
2 53155  53.2192  73.6807 0001750  45.3216 314.7919 15.08838444 23439
STARLINK-4087           
1 53156U 22083AA  22346.61045607  .00000768  00000+0  66360-4 0  9996
2 53156  53.2207  75.1633 0001778  60.9938 299.1233 15.08835171 22758
STARLINK-4093           
1 53157U 22083AB  22346.73461210  .00001805  00000+0  13149-3 0  9991
2 53157  53.2192  74.6034 0001869  42.1562 317.9574 15.08841966 22775
STARLINK-4054           
1 53158U 22083AC  22346.94437778  .00000713  00000+0  62896-4 0  9998
2 53158  53.2185  73.6638 0001649  47.4454 312.6677 15.08837328 23438
STARLINK-4111           
1 53159U 22083AD  22346.85973270  .00001827  00000+0  13289-3 0  9999
2 53159  53.2177  74.0398 0002770  41.0241 319.0959 15.08842648 22791
STARLINK-4096           
1 53160U 22083AE  22346.80453192  .00000383  00000+0  42173-4 0  9993
2 53160  53.2174  74.2901 0001764  48.5501 311.5642 15.08839307 22788
STARLINK-4055           
1 53161U 22083AF  22346.98117526  .00001811  00000+0  13182-3 0  9995
2 53161  53.2192  73.5117 0001721  45.7920 314.3213 15.08843128 23442
STARLINK-4114           
1 53162U 22083AG  22346.86341168  .00007162  00000+0  46741-3 0  9996
2 53162  53.2186  74.0250 0001814  46.4387 313.6756 15.08855593 22798
STARLINK-4104           
1 53163U 22083AH  22346.51109175  .00003670  00000+0  24855-3 0  9991
2 53163  53.2204  75.6254 0001918  42.4736 317.6404 15.08845524 23372
STARLINK-4116           
1 53164U 22083AJ  22346.71988152  .00001493  00000+0  11190-3 0  9993
2 53164  53.2190  74.6732 0001822  48.9276 311.1873 15.08840294 22772
STARLINK-4090           
1 53165U 22083AK  22346.77141447 -.00000451  00000+0 -10253-4 0  9993
2 53165  53.2187  74.4557 0002135  44.1191 315.9971 15.08844144 23415
STARLINK-4110           
1 53166U 22083AL  22346.64629014  .00001430  00000+0  10795-3 0  9997
2 53166  53.2199  75.0158 0002049  45.3165 314.7994 15.08843992 23390
STARLINK-3683           
1 53167U 22083AM  22346.85655907  .00001156  00000+0  90692-4 0  9991
2 53167  53.2189  59.0552 0002218  32.8908 327.2222 15.08849435 22990
STARLINK-4105           
1 53168U 22083AN  22346.51013671  .00000676  00000+0  60589-4 0  9999
2 53168  53.2187  75.6274 0002300  40.1802 319.9360 15.08838489 22742
STARLINK-4117           
1 53169U 22083AP  22346.67623914  .00001225  00000+0  95074-4 0  9992
2 53169  53.2159  59.8686 0002116  42.5675 317.5481 15.08832156 23601
STARLINK-4095           
1 53170U 22083AQ  22346.94027311 -.00000082  00000+0  12939-4 0  9993
2 53170  53.2187  68.6859 0001639  47.8204 312.2927 15.08836253 23507
STARLINK-4052           
1 53171U 22083AR  22347.10999948 -.00002366  00000+0 -13066-3 0  9996
2 53171  53.2181  42.6818 0000854 128.1361 231.9708 15.08837217 23880
STARLINK-4299           
1 53172U 22083AS  22346.93658889 -.00000928  00000+0 -40217-4 0  9994
2 53172  53.2185  68.7010 0002253  38.0377 322.0774 15.08840757 23506
STARLINK-4300           
1 53173U 22083AT  22346.88323032  .00002931  00000+0  20226-3 0  9999
2 53173  53.2167  48.9447 0001395  73.0357 287.0788 15.08821626 23772
STARLINK-4205           
1 53174U 22083AU  22346.71160979  .00001240  00000+0  95984-4 0  9997
2 53174  53.2195  84.7192 0001682  55.0649 305.0501 15.08843455 22623
STARLINK-4292           
1 53175U 22083AV  22346.97289312 -.00001977  00000+0 -10616-3 0  9996
2 53175  53.2199  83.5496 0002252  40.6304 319.4856 15.08834810 23307
STARLINK-4294           
1 53176U 22083AW  22346.72039693  .00005396  00000+0  35679-3 0  9998
2 53176  53.2191  59.6668 0002099  42.0942 318.0211 15.08847038 22976
STARLINK-4298           
1 53177U 22083AX  22346.87588028  .00000157  00000+0  27980-4 0  9993
2 53177  53.2175  48.9759 0001425  82.9899 277.1255 15.08827587 23776
STARLINK-4280           
1 53178U 22083AY  22346.50279918  .00006338  00000+0  41598-3 0  9996
2 53178  53.2187  75.6477 0002683  43.6726 316.4478 15.08837533 23354
STARLINK-4276           
1 53179U 22083AZ  22347.25001157 -.01141141  00000+0 -30663-1 0  9992
2 53179  53.2176  33.2980 0001802  38.6231  98.0695 15.40175343 24028
STARLINK-4258           
1 53180U 22083BA  22347.25001157 -.01141597  00000+0 -32354-1 0  9998
2 53180  53.2176  33.3525 0001756  37.9298  71.1954 15.38565919 24028
STARLINK-4273           
1 53181U 22083BB  22347.25001157 -.01141474  00000+0 -32113-1 0  9996
2 53181  53.2176  33.3432 0001782  37.4652  76.6372 15.38789245 24028
STARLINK-4278           
1 53182U 22083BC  22346.87218720  .00000265  00000+0  34753-4 0  9994
2 53182  53.2186  48.9944 0001226  74.5794 285.5334 15.08838509 23777
STARLINK-4268           
1 53183U 22083BD  22347.25001157 -.00578707  00000+0 -38380-1 0  9992
2 53183  53.2175  37.2931 0001767  38.5190 129.5747 15.09340806 23968
STARLINK-4257           
1 53184U 22083BE  22347.25001157 -.01141054  00000+0 -30347-1 0  9990
2 53184  53.2176  33.3126 0001761  40.5893 101.7444 15.40484329 24028
STARLINK-4391           
1 53189U 22084A   22347.10137227  .00003972  00000+0  31350-3 0  9998
2 53189  97.6551  45.8431 0002144  49.2550 310.8860 15.01277505 22274
STARLINK-4332           
1 53190U 22084B   22346.73132034  .00000225  00000+0  22142-4 0  9997
2 53190  97.6562  45.4456 0001302  87.5152 272.6222 15.01261029 22506
STARLINK-4369           
1 53191U 22084C   22347.09580787  .00000758  00000+0  63588-4 0  9990
2 53191  97.6547  45.8093 0002198  57.2424 302.9012 15.01267129 22265
STARLINK-4375           
1 53192U 22084D   22347.09396001  .00000702  00000+0  59240-4 0  9994
2 53192  97.6546  45.8073 0001977  85.1445 275.0005 15.01270416 22265
STARLINK-4351           
1 53193U 22084E   22346.76625206  .00002198  00000+0  17559-3 0  9997
2 53193  97.6536  45.4937 0002096  62.2085 297.9351 15.01270082 22850
STARLINK-4382           
1 53194U 22084F   22347.09766193 -.00000264  00000+0 -15990-4 0  9998
2 53194  97.6546  45.8165 0001902  52.5885 307.5512 15.01258607 22265
STARLINK-4404           
1 53195U 22084G   22346.13408657  .00007695  00000+0  61586-3 0  9995
2 53195  97.6570  44.9419 0000934   7.3845 352.7393 15.00452232 22418
STARLINK-4407           
1 53196U 22084H   22347.09420333  .00002752  00000+0  21871-3 0  9999
2 53196  97.6554  45.8091 0001918  76.9019 283.2419 15.01270035 22265
STARLINK-4403           
1 53197U 22084J   22347.08840432  .00000677  00000+0  57307-4 0  9993
2 53197  97.6566  45.8003 0001851  97.9207 262.2227 15.01263736 22264
STARLINK-4385           
1 53198U 22084K   22347.09210209  .00001174  00000+0  95948-4 0  9994
2 53198  97.6552  45.8045 0001951  94.2665 265.8782 15.01270224 22260
